[{"OBJECT_NAME":"ONEWEB-0696","OBJECT_ID":"2023-068P","EPOCH":"2026-03-09T14:43:36.653088","MEAN_MOTION":13.15549402,"ECCENTRICITY":0.0001789,"INCLINATION":87.8938,"RA_OF_ASC_NODE":279.1064,"ARG_OF_PERICENTER":105.2026,"MEAN_ANOMALY":254.9302,"EPHEMERIS_TYPE":0,"CLASSIFICATION_TYPE":"U","NORAD_CAT_ID":56723,"ELEMENT_SET_NO":999,"REV_AT_EPOCH":13627,"BSTAR":-0.00020351,"MEAN_MOTION_DOT":-6.4e-7,"MEAN_MOTION_DDOT":0},{"OBJECT_NAME":"FENGYUN 1C DEB","OBJECT_ID":"1999-025AZS","EPOCH":"2026-03-09T04:37:14.626560","MEAN_MOTION":13.22454712,"ECCENTRICITY":0.04558543,"INCLINATION":98.8745,"RA_OF_ASC_NODE":149.8114,"ARG_OF_PERICENTER":180.9505,"MEAN_ANOMALY":208.8078,"EPHEMERIS_TYPE":0,"CLASSIFICATION_TYPE":"U","NORAD_CAT_ID":30928,"ELEMENT_SET_NO":999,"REV_AT_EPOCH":91491,"BSTAR":0.0015534075,"MEAN_MOTION_DOT":1.089e-5,"MEAN_MOTION_DDOT":0}]
